NORAD_CAT_ID,OBJECT_NAME,OBJECT_TYPE,EPOCH,MEAN_MOTION,ECCENTRICITY,INCLINATION,RA_OF_ASC_NODE,ARG_OF_PERICENTER,MEAN_ANOMALY,BSTAR,MEAN_MOTION_DOT,MEAN_MOTION_DDOT,TLE_LINE0,TLE_LINE1,TLE_LINE2,SEMIMAJOR_AXIS,PERIOD,APOGEE,PERIGEE,DECAYED
52678.0,STARLINK-4074,PAYLOAD,2022-12-16 19:49:18,15.08829527,0.0003148,53.2181,36.2454,19.8674,340.244,-0.00010019,-1.883e-05,0.0,0 STARLINK-4074,1 52678U 22053Y   22350.82590368 -.00001883  00000-0 -10019-3 0  9999,2 52678  53.2181  36.2454 0003148  19.8674 340.2440 15.08829527 33207,6917.9119999999975,95.438,541.955,537.6,0.0
52678.0,STARLINK-4074,PAYLOAD,2022-12-17 03:46:13,15.08827924,0.000304,53.2187,34.7581,18.1956,341.9145,-6.4078e-05,-1.308e-05,0.0,0 STARLINK-4074,1 52678U 22053Y   22351.15710631 -.00001308  00000-0 -64078-4 0  9990,2 52678  53.2187  34.7581 0003040  18.1956 341.9145 15.08827924 32829,6917.917,95.438,541.885,537.679,0.0
52678.0,STARLINK-4074,PAYLOAD,2022-12-17 10:07:46,15.08827791,0.000312,53.2186,33.5689,18.503,341.6075,-6.0722e-05,-1.255e-05,0.0,0 STARLINK-4074,1 52678U 22053Y   22351.42206829 -.00001255  00000-0 -60722-4 0  9992,2 52678  53.2186  33.5689 0003120  18.5030 341.6075 15.08827791 33293,6917.918000000002,95.438,541.941,537.624,0.0
52678.0,STARLINK-4074,PAYLOAD,2022-12-17 14:53:55,15.08831701,0.0003096,53.2187,32.6765,19.6053,340.5058,-2.9352e-05,-7.56e-06,0.0,0 STARLINK-4074,1 52678U 22053Y   22351.62078612 -.00000756  00000-0 -29352-4 0  9990,2 52678  53.2187  32.6765 0003096  19.6053 340.5058 15.08831701 33327,6917.906,95.438,541.913,537.629,0.0
52678.0,STARLINK-4074,PAYLOAD,2022-12-18 09:58:33,15.08834775,0.0003103,53.2184,29.1082,21.6984,338.4139,8.4939e-05,1.063e-05,0.0,0 STARLINK-4074,1 52678U 22053Y   22352.41566654  .00001063  00000-0  84939-4 0  9998,2 52678  53.2184  29.1082 0003103  21.6984 338.4139 15.08834775 33018,6917.896,95.438,541.908,537.615,0.0
52678.0,STARLINK-4074,PAYLOAD,2022-12-18 11:33:56,15.08835573,0.000313,53.2185,28.8109,21.7738,338.3387,9.1856e-05,1.173e-05,0.0,0 STARLINK-4074,1 52678U 22053Y   22352.48190635  .00001173  00000-0  91856-4 0  9995,2 52678  53.2185  28.8109 0003130  21.7738 338.3387 15.08835573 33452,6917.894,95.438,541.924,537.594,0.0
52678.0,STARLINK-4074,PAYLOAD,2022-12-19 06:38:34,15.08832414,0.0003198,53.2183,25.2426,22.3837,337.7294,0.00012114,1.64e-05,0.0,0 STARLINK-4074,1 52678U 22053Y   22353.27679297  .00001640  00000-0  12114-3 0  9997,2 52678  53.2183  25.2426 0003198  22.3837 337.7294 15.08832414 33578,6917.904,95.438,541.981,537.556,0.0
52678.0,STARLINK-4074,PAYLOAD,2022-12-19 14:35:29,15.08846376,0.0003122,53.218,23.7556,23.9298,336.1839,0.00026303,3.901e-05,0.0,0 STARLINK-4074,1 52678U 22053Y   22353.60798205  .00003901  00000-0  26303-3 0  9992,2 52678  53.2180  23.7556 0003122  23.9298 336.1839 15.08846376 33195,6917.861,95.437,541.886,537.566,0.0
52678.0,STARLINK-4074,PAYLOAD,2022-12-19 19:21:40,15.08830543,0.0002987,53.2183,22.8639,24.1486,335.9646,6.3941e-05,7.29e-06,0.0,0 STARLINK-4074,1 52678U 22053Y   22353.80671688  .00000729  00000-0  63941-4 0  9994,2 52678  53.2183  22.8639 0002987  24.1486 335.9646 15.08830543 33653,6917.909000000002,95.438,541.841,537.7080000000002,0.0
52678.0,STARLINK-4074,PAYLOAD,2022-12-20 08:04:45,15.08839133,0.0002815,53.2192,20.4851,17.9333,342.1758,5.191e-05,5.38e-06,0.0,0 STARLINK-4074,1 52678U 22053Y   22354.33663354  .00000538  00000-0  51910-4 0  9995,2 52678  53.2192  20.4851 0002815  17.9333 342.1758 15.08839133 33304,6917.8830000000025,95.438,541.695,537.8009999999998,0.0
52678.0,STARLINK-4074,PAYLOAD,2022-12-20 11:15:30,15.08852893,0.0003096,53.2186,19.8899,26.8315,333.2837,0.0001694,2.409e-05,0.0,0 STARLINK-4074,1 52678U 22053Y   22354.46910233  .00002409  00000-0  16940-3 0  9992,2 52678  53.2186  19.8899 0003096  26.8315 333.2837 15.08852893 33758,6917.840999999999,95.437,541.8480000000002,537.564,0.0
52678.0,STARLINK-4074,PAYLOAD,2022-12-21 03:09:22,15.08835156,0.0002961,53.2182,16.9168,29.6708,330.4452,-0.00015213,-2.709e-05,0.0,0 STARLINK-4074,1 52678U 22053Y   22355.13151416 -.00002709  00000-0 -15213-3 0  9994,2 52678  53.2182  16.9168 0002961  29.6708 330.4452 15.08835156 33427,6917.895,95.438,541.809,537.712,0.0
52678.0,STARLINK-4074,PAYLOAD,2022-12-21 07:55:32,15.08837067,0.0002896,53.2181,16.0246,32.003,328.1138,-9.2644e-05,-1.763e-05,0.0,0 STARLINK-4074,1 52678U 22053Y   22355.33023500 -.00001763  00000-0 -92644-4 0  9991,2 52678  53.2181  16.0246 0002896  32.0030 328.1138 15.08837067 33885,6917.889,95.438,541.758,537.751,0.0
52678.0,STARLINK-4074,PAYLOAD,2022-12-22 07:46:19,15.08844076,0.0002903,53.2176,11.5642,35.6252,324.4934,0.00017854,2.554e-05,0.0,0 STARLINK-4074,1 52678U 22053Y   22356.32383466  .00002554  00000-0  17854-3 0  9997,2 52678  53.2176  11.5642 0002903  35.6252 324.4934 15.08844076 33604,6917.868,95.437,541.741,537.725,0.0
52678.0,STARLINK-4074,PAYLOAD,2022-12-22 10:57:05,15.08846246,0.0002895,53.2172,10.9687,36.4631,323.6558,0.00014299,1.988e-05,0.0,0 STARLINK-4074,1 52678U 22053Y   22356.45631347  .00001988  00000-0  14299-3 0  9995,2 52678  53.2172  10.9687 0002895  36.4631 323.6558 15.08846246 34056,6917.861,95.437,541.729,537.724,0.0
52678.0,STARLINK-4074,PAYLOAD,2022-12-22 12:32:28,15.08848764,0.0002895,53.2176,10.6721,35.9412,324.1774,0.00020254,2.937e-05,0.0,0 STARLINK-4074,1 52678U 22053Y   22356.52255231  .00002937  00000-0  20254-3 0  9990,2 52678  53.2176  10.6721 0002895  35.9412 324.1774 15.08848764 34061,6917.854,95.437,541.721,537.716,0.0
52678.0,STARLINK-4074,PAYLOAD,2022-12-23 09:12:28,15.08855887,0.0002882,53.2177,6.806,38.0832,322.0364,0.00035355,5.345e-05,0.0,0 STARLINK-4074,1 52678U 22053Y   22357.38366733  .00005345  00000-0  35355-3 0  9999,2 52678  53.2177   6.8060 0002882  38.0832 322.0364 15.08855887 33763,6917.831999999999,95.437,541.691,537.703,0.0
52678.0,STARLINK-4074,PAYLOAD,2022-12-23 12:23:14,15.0885854,0.000289,53.2178,6.2114,37.9883,322.1313,0.00036226,5.485e-05,0.0,0 STARLINK-4074,1 52678U 22053Y   22357.51614502  .00005485  00000-0  36226-3 0  9997,2 52678  53.2178   6.2114 0002890  37.9883 322.1313 15.08858540 34216,6917.824000000001,95.436,541.688,537.689,0.0
52678.0,STARLINK-4074,PAYLOAD,2022-12-24 10:38:38,15.08842549,0.0002889,53.2178,2.0483,38.416,321.7038,-6.706899999999999e-05,-1.356e-05,0.0,0 STARLINK-4074,1 52678U 22053Y   22358.44350451 -.00001356  00000-0 -67069-4 0  9995,2 52678  53.2178   2.0483 0002889  38.4160 321.7038 15.08842549 33929,6917.873000000001,95.437,541.736,537.739,0.0
52678.0,STARLINK-4074,PAYLOAD,2022-12-24 17:00:11,15.08830284,0.0002894,53.2177,0.8586,38.4161,321.7037,-0.00025883,-4.405e-05,0.0,0 STARLINK-4074,1 52678U 22053Y   22358.70847045 -.00004405  00000-0 -25883-3 0  9999,2 52678  53.2177   0.8586 0002894  38.4161 321.7037 15.08830284 33961,6917.91,95.438,541.7769999999998,537.773,0.0
52678.0,STARLINK-4074,PAYLOAD,2022-12-25 10:29:26,15.088356900000004,0.0002856999999999,53.2188,357.588,36.0989,324.0196,-4.6557e-05,-1.029e-05,0.0,0 STARLINK-4074,1 52678U 22053Y   22359.43711406 -.00001029  00000-0 -46557-4 0  9992,2 52678  53.2188 357.5880 0002857  36.0989 324.0196 15.08835690 34502,6917.894,95.438,541.735,537.7819999999998,0.0
52678.0,STARLINK-4074,PAYLOAD,2022-12-26 08:44:50,15.08834552,0.00028,53.2188,353.4242,36.9983,323.1201,4.6964e-05,4.59e-06,0.0,0 STARLINK-4074,1 52678U 22053Y   22360.36447364  .00000459  00000-0  46964-4 0  9991,2 52678  53.2188 353.4242 0002800  36.9983 323.1201 15.08834552 34648,6917.897,95.438,541.6990000000002,537.825,0.0
52678.0,STARLINK-4074,PAYLOAD,2022-12-26 16:41:45,15.08844792,0.0002861,53.2195,351.9375,36.65,323.4688,0.00013924,1.929e-05,0.0,0 STARLINK-4074,1 52678U 22053Y   22360.69566473  .00001929  00000-0  13924-3 0  9992,2 52678  53.2195 351.9375 0002861  36.6500 323.4688 15.08844792 34262,6917.866,95.437,541.71,537.752,0.0
52678.0,STARLINK-4074,PAYLOAD,2022-12-27 00:38:41,15.08838637,0.0002864,53.2194,350.451,37.8163,322.303,0.00017331,2.471e-05,0.0,0 STARLINK-4074,1 52678U 22053Y   22361.02686916  .00002471  00000-0  17331-3 0  9994,2 52678  53.2194 350.4510 0002864  37.8163 322.3030 15.08838637 34313,6917.885,95.438,541.731,537.768,0.0
52678.0,STARLINK-4074,PAYLOAD,2022-12-27 16:32:32,15.08845384,0.0002833,53.219,347.4772,38.2572,321.862,0.00011591,1.557e-05,0.0,0 STARLINK-4074,1 52678U 22053Y   22361.68926568  .00001557  00000-0  11591-3 0  9992,2 52678  53.2190 347.4772 0002833  38.2572 321.8620 15.08845384 34844,6917.864000000001,95.437,541.689,537.769,0.0
52678.0,STARLINK-4074,PAYLOAD,2022-12-29 05:06:25,15.08841019,0.0003186,53.2178,340.6408,37.8238,322.2977,-0.0001634,-2.889e-05,0.0,0 STARLINK-4074,1 52678U 22053Y   22363.21279051 -.00002889  00000-0 -16340-3 0  9999,2 52678  53.2178 340.6408 0003186  37.8238 322.2977 15.08841019 34646,6917.877,95.437,541.946,537.538,0.0
52678.0,STARLINK-4074,PAYLOAD,2022-12-29 09:52:35,15.08827569,0.000252,53.218,339.7448,35.9431,324.173,-0.00016428,-2.901e-05,0.0,0 STARLINK-4074,1 52678U 22053Y   22363.41151870 -.00002901  00000-0 -16428-3 0  9991,2 52678  53.2180 339.7448 0002520  35.9431 324.1730 15.08827569 35101,6917.918000000002,95.438,541.5269999999998,538.04,0.0
52678.0,STARLINK-4074,PAYLOAD,2022-12-29 16:14:07,15.08828952,0.0002360999999999,53.2179,338.5556,36.9881,323.1274,-0.00016907,-2.977e-05,0.0,0 STARLINK-4074,1 52678U 22053Y   22363.67647916 -.00002977  00000-0 -16907-3 0  9995,2 52678  53.2179 338.5556 0002361  36.9881 323.1274 15.08828952 34714,6917.9140000000025,95.438,541.4119999999998,538.146,0.0
52678.0,STARLINK-4074,PAYLOAD,2022-12-30 09:43:19,15.08908476,0.0002952,53.2182,335.2867,27.6913,332.4236,-0.00078776,-0.00012829,0.0,0 STARLINK-4074,1 52678U 22053Y   22364.40509122 -.00012829  00000-0 -78776-3 0  9992,2 52678  53.2182 335.2867 0002952  27.6913 332.4236 15.08908476 34829,6917.670999999999,95.433,541.578,537.494,0.0
